{
  "type": "FeatureCollection",
  "features": [
    {
      "type": "Feature",
      "properties": {
        "norad_id": 54259,
        "name": "EUTELSAT 10B",
        "group": "eutelsat",
        "lat": -0.032853282104465996,
        "lon": 38.084418728560706,
        "alt_km": 35792.22178297278,
        "timestamp": "2025-12-09T20:37:08.953463+00:00",
        "meta_object_name": "EUTELSAT 10B",
        "meta_object_id": "2022-157A",
        "meta_epoch": "2025-12-09T13:37:14.907360",
        "meta_mean_motion": 1.0026671,
        "meta_eccentricity": 0.00014734,
        "meta_inclination": 0.0618,
        "meta_ra_of_asc_node": 98.0334,
        "meta_arg_of_pericenter": 79.9277,
        "meta_mean_anomaly": 114.8799,
        "meta_ephemeris_type": 0,
        "meta_classification_type": "U",
        "meta_norad_cat_id": 54259,
        "meta_element_set_no": 999,
        "meta_rev_at_epoch": 1112,
        "meta_bstar": 0,
        "meta_mean_motion_dot": 7e-07,
        "meta_mean_motion_ddot": 0,
        "tle_line1": "1 54259U 22157A   25343.56753365  .00000070  00000+0  00000+0 0  9994",
        "tle_line2": "2 54259   0.0618  98.0334 0001473  79.9277 114.8799  1.00266710 11122"
      },
      "geometry": {
        "type": "Point",
        "coordinates": [
          38.084418728560706,
          -0.032853282104465996
        ]
      }
    },
    {
      "type": "Feature",
      "properties": {
        "norad_id": 59346,
        "name": "EUTELSAT 36D",
        "group": "eutelsat",
        "lat": 0.03624152581978091,
        "lon": 63.99028865083,
        "alt_km": 35787.07829580822,
        "timestamp": "2025-12-09T20:37:08.953474+00:00",
        "meta_object_name": "EUTELSAT 36D",
        "meta_object_id": "2024-059A",
        "meta_epoch": "2025-12-09T13:44:36.701664",
        "meta_mean_motion": 1.00269475,
        "meta_eccentricity": 4.474e-05,
        "meta_inclination": 0.0173,
        "meta_ra_of_asc_node": 350.0588,
        "meta_arg_of_pericenter": 332.1632,
        "meta_mean_anomaly": 358.3521,
        "meta_ephemeris_type": 0,
        "meta_classification_type": "U",
        "meta_norad_cat_id": 59346,
        "meta_element_set_no": 999,
        "meta_rev_at_epoch": 624,
        "meta_bstar": 0,
        "meta_mean_motion_dot": 1.58e-06,
        "meta_mean_motion_ddot": 0,
        "tle_line1": "1 59346U 24059A   25343.57264701  .00000158  00000+0  00000+0 0  9998",
        "tle_line2": "2 59346   0.0173 350.0588 0000447 332.1632 358.3521  1.00269475  6247"
      },
      "geometry": {
        "type": "Point",
        "coordinates": [
          63.99028865083,
          0.03624152581978091
        ]
      }
    }
  ]
}